     3.03           N: GNSS NAV DATA    M: Mixed            RINEX VERSION / TYPE
sbp2rinex v2.2 (RTKL                    20210504 171526 UTC PGM / RUN BY / DATE 
log: 2020-06-05-US-MTV-1.sbp                                COMMENT             
format: Swift Navigation SBP, option: CONVBASE,EPHALL,OBSALLCOMMENT             
                                                            END OF HEADER       
G22 2020  6  5 17 59 44 -.779414549470E-03  .181898940355E-11  .000000000000E+00
      .130000000000E+02  .528125000000E+01  .516914388702E-08  .224226019338E+01
      .314787030220E-06  .706701434683E-02  .923871994019E-05  .515381410027E+04
      .496784000000E+06  .134110450745E-06 -.238275017353E+01 -.186264514923E-08
      .930836569285E+00  .181437500000E+03 -.114204366414E+01 -.806997900416E-08
      .497520723735E-09  .200000000000E+01  .210800000000E+04  .100000000000E+01
      .200000000000E+01  .000000000000E+00 -.181607902050E-07  .130000000000E+02
      .496071000000E+06  .400000000000E+01
G22 2020  6  5 18  0  0 -.779413618147E-03  .181898940355E-11  .000000000000E+00
      .810000000000E+02  .528125000000E+01  .516914388702E-08  .224459431575E+01
      .314787030220E-06  .706701423042E-02  .923871994019E-05  .515381410408E+04
      .496800000000E+06  .134110450745E-06 -.238275031105E+01 -.186264514923E-08
      .930836579526E+00  .181437500000E+03 -.114204426394E+01 -.806997900416E-08
      .497520723735E-09  .200000000000E+01  .210800000000E+04  .100000000000E+01
      .200000000000E+01  .000000000000E+00 -.181607902050E-07  .810000000000E+02
      .496072000000E+06  .400000000000E+01
G22 2020  6  5 17 59 44 -.779414549470E-03  .181898940355E-11  .000000000000E+00
      .130000000000E+02  .528125000000E+01  .516914388702E-08  .224226019338E+01
      .314787030220E-06  .706701434683E-02  .923871994019E-05  .515381410027E+04
      .496784000000E+06  .134110450745E-06 -.238275017353E+01 -.186264514923E-08
      .930836569285E+00  .181437500000E+03 -.114204366414E+01 -.806997900416E-08
      .497520723735E-09  .200000000000E+01  .210800000000E+04  .100000000000E+01
      .200000000000E+01  .000000000000E+00 -.181607902050E-07  .130000000000E+02
      .496077000000E+06  .400000000000E+01
E 2 2020  6  5 17 30  0  .138352159411E-03  .271427325060E-11  .000000000000E+00
      .570000000000E+02  .257812500000E+03  .246724562783E-08 -.681131089650E+00
      .120587646961E-04  .166689278558E-03  .827759504318E-05  .544062361526E+04
      .495000000000E+06  .651925802231E-07  .582424087684E+00 -.204890966415E-07
      .983059087420E+00  .176062500000E+03  .357236851732E+00 -.538272421207E-08
      .349657421778E-09  .500000000000E+01  .210800000000E+04  .100000000000E+01
      .312000000000E+01  .000000000000E+00 -.325962901115E-08 -.419095158577E-08
      .496078000000E+06  .000000000000E+00
G22 2020  6  5 18  0  0 -.779413618147E-03  .181898940355E-11  .000000000000E+00
      .810000000000E+02  .528125000000E+01  .516914388702E-08  .224459431575E+01
      .314787030220E-06  .706701423042E-02  .923871994019E-05  .515381410408E+04
      .496800000000E+06  .134110450745E-06 -.238275031105E+01 -.186264514923E-08
      .930836579526E+00  .181437500000E+03 -.114204426394E+01 -.806997900416E-08
      .497520723735E-09  .200000000000E+01  .210800000000E+04  .100000000000E+01
      .200000000000E+01  .000000000000E+00 -.181607902050E-07  .810000000000E+02
      .496089000000E+06  .400000000000E+01
E33 2020  6  5 17 30  0 -.466449826490E-03  .369482222595E-12  .000000000000E+00
      .570000000000E+02 -.223968750000E+03  .263046671235E-08  .102754373298E+01
     -.102799385786E-04  .206710654311E-03  .680238008499E-05  .544061234283E+04
      .495000000000E+06  .596046447754E-07  .266175459025E+01 -.502914190292E-07
      .991674119825E+00  .206937500000E+03 -.281691557310E+00 -.542022577416E-08
     -.311441544219E-09  .500000000000E+01  .210800000000E+04  .100000000000E+01
      .312000000000E+01  .000000000000E+00 -.535510480404E-08 -.605359673500E-08
      .496107000000E+06  .000000000000E+00
G22 2020  6  5 17 59 44 -.779414549470E-03  .181898940355E-11  .000000000000E+00
      .130000000000E+02  .528125000000E+01  .516914388702E-08  .224226019338E+01
      .314787030220E-06  .706701434683E-02  .923871994019E-05  .515381410027E+04
      .496784000000E+06  .134110450745E-06 -.238275017353E+01 -.186264514923E-08
      .930836569285E+00  .181437500000E+03 -.114204366414E+01 -.806997900416E-08
      .497520723735E-09  .200000000000E+01  .210800000000E+04  .100000000000E+01
      .200000000000E+01  .000000000000E+00 -.181607902050E-07  .130000000000E+02
      .496107000000E+06  .400000000000E+01
G22 2020  6  5 18  0  0 -.779413618147E-03  .181898940355E-11  .000000000000E+00
      .810000000000E+02  .528125000000E+01  .516914388702E-08  .224459431575E+01
      .314787030220E-06  .706701423042E-02  .923871994019E-05  .515381410408E+04
      .496800000000E+06  .134110450745E-06 -.238275031105E+01 -.186264514923E-08
      .930836579526E+00  .181437500000E+03 -.114204426394E+01 -.806997900416E-08
      .497520723735E-09  .200000000000E+01  .210800000000E+04  .100000000000E+01
      .200000000000E+01  .000000000000E+00 -.181607902050E-07  .810000000000E+02
      .496116000000E+06  .400000000000E+01
G22 2020  6  5 17 59 44 -.779414549470E-03  .181898940355E-11  .000000000000E+00
      .130000000000E+02  .528125000000E+01  .516914388702E-08  .224226019338E+01
      .314787030220E-06  .706701434683E-02  .923871994019E-05  .515381410027E+04
      .496784000000E+06  .134110450745E-06 -.238275017353E+01 -.186264514923E-08
      .930836569285E+00  .181437500000E+03 -.114204366414E+01 -.806997900416E-08
      .497520723735E-09  .200000000000E+01  .210800000000E+04  .100000000000E+01
      .200000000000E+01  .000000000000E+00 -.181607902050E-07  .130000000000E+02
      .496118000000E+06  .400000000000E+01
G22 2020  6  5 18  0  0 -.779413618147E-03  .181898940355E-11  .000000000000E+00
      .810000000000E+02  .528125000000E+01  .516914388702E-08  .224459431575E+01
      .314787030220E-06  .706701423042E-02  .923871994019E-05  .515381410408E+04
      .496800000000E+06  .134110450745E-06 -.238275031105E+01 -.186264514923E-08
      .930836579526E+00  .181437500000E+03 -.114204426394E+01 -.806997900416E-08
      .497520723735E-09  .200000000000E+01  .210800000000E+04  .100000000000E+01
      .200000000000E+01  .000000000000E+00 -.181607902050E-07  .810000000000E+02
      .496126000000E+06  .400000000000E+01
G22 2020  6  5 17 59 44 -.779414549470E-03  .181898940355E-11  .000000000000E+00
      .130000000000E+02  .528125000000E+01  .516914388702E-08  .224226019338E+01
      .314787030220E-06  .706701434683E-02  .923871994019E-05  .515381410027E+04
      .496784000000E+06  .134110450745E-06 -.238275017353E+01 -.186264514923E-08
      .930836569285E+00  .181437500000E+03 -.114204366414E+01 -.806997900416E-08
      .497520723735E-09  .200000000000E+01  .210800000000E+04  .100000000000E+01
      .200000000000E+01  .000000000000E+00 -.181607902050E-07  .130000000000E+02
      .496157000000E+06  .400000000000E+01
G22 2020  6  5 18  0  0 -.779413618147E-03  .181898940355E-11  .000000000000E+00
      .810000000000E+02  .528125000000E+01  .516914388702E-08  .224459431575E+01
      .314787030220E-06  .706701423042E-02  .923871994019E-05  .515381410408E+04
      .496800000000E+06  .134110450745E-06 -.238275031105E+01 -.186264514923E-08
      .930836579526E+00  .181437500000E+03 -.114204426394E+01 -.806997900416E-08
      .497520723735E-09  .200000000000E+01  .210800000000E+04  .100000000000E+01
      .200000000000E+01  .000000000000E+00 -.181607902050E-07  .810000000000E+02
      .496162000000E+06  .400000000000E+01
C12 2020  6  5 17  0  0  .392467016354E-03  .109849906949E-10  .460785923306E-18
      .130000000000E+02 -.142312500000E+03  .361622205874E-08 -.228687885832E+01
     -.692438334227E-05  .922155682929E-03  .185100361705E-05  .528261899757E+04
      .493200000000E+06  .568106770515E-07  .224295719046E+01  .279396772385E-07
      .988721256255E+00  .338718750000E+03 -.210104528465E+01 -.691493089177E-08
     -.321441960776E-09  .120000000000E+02  .752000000000E+03  .100000000000E+01
      .200000000000E+01  .000000000000E+00  .270000000135E-08 -.599999994133E-09
      .496201000000E+06  .120000000000E+02
C13 2020  6  5 17  0  0  .474557513371E-03  .202495797907E-10  .000000000000E+00
      .100000000000E+01 -.969156250000E+03  .542165440510E-09 -.414920979947E+00
     -.320542603731E-04  .369557377417E-02  .280709937215E-04  .649369722748E+04
      .493200000000E+06 -.657513737679E-06  .299714332223E+01 -.813510268927E-06
      .996014650431E+00 -.615562500000E+03 -.266412677775E+01 -.191829419037E-08
      .767889128522E-10  .120000000000E+02  .752000000000E+03  .100000000000E+01
      .200000000000E+01  .000000000000E+00 -.959999990613E-08  .239999997653E-08
      .496201000000E+06  .000000000000E+00
C14 2020  6  5 17  0  0  .494700623676E-03  .481712447709E-10  .100288700955E-17
      .900000000000E+01  .267812500000E+02  .408338437506E-08 -.266914424297E+00
      .129872933030E-05  .154802203178E-02  .642845407128E-05  .528260695457E+04
      .493200000000E+06 -.186264514923E-08 -.195936495146E+01 -.474974513054E-07
      .960507514731E+00  .233734375000E+03 -.697546329570E+00 -.685242828829E-08
      .424303388225E-09  .120000000000E+02  .752000000000E+03  .100000000000E+01
      .200000000000E+01  .000000000000E+00  .600000005235E-08  .900000018955E-09
      .496201000000E+06  .800000000000E+01
